[{"OBJECT_NAME":"STARLINK-34415","OBJECT_ID":"2025-137AA","EPOCH":"2026-03-09T22:34:33.750624","MEAN_MOTION":15.30196215,"ECCENTRICITY":8.355e-5,"INCLINATION":53.1601,"RA_OF_ASC_NODE":334.0458,"ARG_OF_PERICENTER":79.8763,"MEAN_ANOMALY":280.2332,"EPHEMERIS_TYPE":0,"CLASSIFICATION_TYPE":"U","NORAD_CAT_ID":64618,"ELEMENT_SET_NO":999,"REV_AT_EPOCH":4077,"BSTAR":0.0010909069,"MEAN_MOTION_DOT":0.00032086,"MEAN_MOTION_DDOT":0},{"OBJECT_NAME":"TRANSPORTER-1 OBJECT AA","OBJECT_ID":"2021-006AA","EPOCH":"2026-03-09T22:58:14.761920","MEAN_MOTION":15.29982294,"ECCENTRICITY":0.00086604,"INCLINATION":97.2381,"RA_OF_ASC_NODE":112.457,"ARG_OF_PERICENTER":185.709,"MEAN_ANOMALY":174.4054,"EPHEMERIS_TYPE":0,"CLASSIFICATION_TYPE":"U","NORAD_CAT_ID":47437,"ELEMENT_SET_NO":999,"REV_AT_EPOCH":28414,"BSTAR":0.0002197941,"MEAN_MOTION_DOT":6.312e-5,"MEAN_MOTION_DDOT":0}]
